{
  "type": "FeatureCollection",
  "features": [
    {
      "type": "Feature",
      "properties": {
        "norad_id": 30073,
        "name": "FENGYUN 1C DEB",
        "group": "fengyun-1c-debris",
        "lat": 62.19544562449255,
        "lon": 151.69396553916556,
        "alt_km": 863.0350071722078,
        "timestamp": "2025-12-06T14:35:37.399697+00:00",
        "meta_object_name": "FENGYUN 1C DEB",
        "meta_object_id": "1999-025QA",
        "meta_epoch": "2025-12-05T21:22:33.259872",
        "meta_mean_motion": 14.18595706,
        "meta_eccentricity": 0.0054221,
        "meta_inclination": 99.4104,
        "meta_ra_of_asc_node": 312.6037,
        "meta_arg_of_pericenter": 299.9316,
        "meta_mean_anomaly": 114.5238,
        "meta_ephemeris_type": 0,
        "meta_classification_type": "U",
        "meta_norad_cat_id": 30073,
        "meta_element_set_no": 999,
        "meta_rev_at_epoch": 96828,
        "meta_bstar": 0.0027866014,
        "meta_mean_motion_dot": 5.81e-05,
        "meta_mean_motion_ddot": 0,
        "tle_line1": "1 30073U 99025QA  25339.89066273  .00005810  00000+0  27866-2 0  9995",
        "tle_line2": "2 30073  99.4104 312.6037 0054221 299.9316 114.5238 14.18595706968280"
      },
      "geometry": {
        "type": "Point",
        "coordinates": [
          151.69396553916556,
          62.19544562449255
        ]
      }
    },
    {
      "type": "Feature",
      "properties": {
        "norad_id": 30074,
        "name": "FENGYUN 1C DEB",
        "group": "fengyun-1c-debris",
        "lat": -0.9749186533376494,
        "lon": 46.882942358093715,
        "alt_km": 922.2013500103803,
        "timestamp": "2025-12-06T14:35:37.399708+00:00",
        "meta_object_name": "FENGYUN 1C DEB",
        "meta_object_id": "1999-025QB",
        "meta_epoch": "2025-12-05T23:18:03.892032",
        "meta_mean_motion": 14.12797864,
        "meta_eccentricity": 0.00976106,
        "meta_inclination": 99.1292,
        "meta_ra_of_asc_node": 46.0768,
        "meta_arg_of_pericenter": 170.5804,
        "meta_mean_anomaly": 189.7227,
        "meta_ephemeris_type": 0,
        "meta_classification_type": "U",
        "meta_norad_cat_id": 30074,
        "meta_element_set_no": 999,
        "meta_rev_at_epoch": 96566,
        "meta_bstar": 0.0027772932,
        "meta_mean_motion_dot": 5.356e-05,
        "meta_mean_motion_ddot": 0,
        "tle_line1": "1 30074U 99025QB  25339.97087838  .00005356  00000+0  27773-2 0  9997",
        "tle_line2": "2 30074  99.1292  46.0768 0097610 170.5804 189.7227 14.12797864965664"
      },
      "geometry": {
        "type": "Point",
        "coordinates": [
          46.882942358093715,
          -0.9749186533376494
        ]
      }
    },
    {
      "type": "Feature",
      "properties": {
        "norad_id": 30075,
        "name": "FENGYUN 1C DEB",
        "group": "fengyun-1c-debris",
        "lat": -1.1379630372938188,
        "lon": -149.32956288658704,
        "alt_km": 858.0472028081394,
        "timestamp": "2025-12-06T14:35:37.399718+00:00",
        "meta_object_name": "FENGYUN 1C DEB",
        "meta_object_id": "1999-025QC",
        "meta_epoch": "2025-12-06T03:29:16.107648",
        "meta_mean_motion": 13.92529541,
        "meta_eccentricity": 0.00908157,
        "meta_inclination": 99.3626,
        "meta_ra_of_asc_node": 30.3907,
        "meta_arg_of_pericenter": 194.8292,
        "meta_mean_anomaly": 187.8829,
        "meta_ephemeris_type": 0,
        "meta_classification_type": "U",
        "meta_norad_cat_id": 30075,
        "meta_element_set_no": 999,
        "meta_rev_at_epoch": 95973,
        "meta_bstar": 0.00032968156,
        "meta_mean_motion_dot": 3.94e-06,
        "meta_mean_motion_ddot": 0,
        "tle_line1": "1 30075U 99025QC  25340.14532532  .00000394  00000+0  32968-3 0  9995",
        "tle_line2": "2 30075  99.3626  30.3907 0090815 194.8292 187.8829 13.92529541959739"
      },
      "geometry": {
        "type": "Point",
        "coordinates": [
          -149.32956288658704,
          -1.1379630372938188
        ]
      }
    },
    {
      "type": "Feature",
      "properties": {
        "norad_id": 30076,
        "name": "FENGYUN 1C DEB",
        "group": "fengyun-1c-debris",
        "lat": -55.85111278411819,
        "lon": 133.63320455748737,
        "alt_km": 1060.230233542622,
        "timestamp": "2025-12-06T14:35:37.399729+00:00",
        "meta_object_name": "FENGYUN 1C DEB",
        "meta_object_id": "1999-025QD",
        "meta_epoch": "2025-12-05T21:54:18.912960",
        "meta_mean_motion": 13.76284538,
        "meta_eccentricity": 0.01756096,
        "meta_inclination": 99.2374,
        "meta_ra_of_asc_node": 326.84,
        "meta_arg_of_pericenter": 111.8156,
        "meta_mean_anomaly": 280.0944,
        "meta_ephemeris_type": 0,
        "meta_classification_type": "U",
        "meta_norad_cat_id": 30076,
        "meta_element_set_no": 999,
        "meta_rev_at_epoch": 94800,
        "meta_bstar": 0.0004178832,
        "meta_mean_motion_dot": 4.15e-06,
        "meta_mean_motion_ddot": 0,
        "tle_line1": "1 30076U 99025QD  25339.91271890  .00000415  00000+0  41788-3 0  9990",
        "tle_line2": "2 30076  99.2374 326.8400 0175609 111.8156 280.0944 13.76284538948001"
      },
      "geometry": {
        "type": "Point",
        "coordinates": [
          133.63320455748737,
          -55.85111278411819
        ]
      }
    },
    {
      "type": "Feature",
      "properties": {
        "norad_id": 30077,
        "name": "FENGYUN 1C DEB",
        "group": "fengyun-1c-debris",
        "lat": -20.21094036849952,
        "lon": 173.20263928673438,
        "alt_km": 872.4361049964054,
        "timestamp": "2025-12-06T14:35:37.399739+00:00",
        "meta_object_name": "FENGYUN 1C DEB",
        "meta_object_id": "1999-025QE",
        "meta_epoch": "2025-12-06T06:53:24.778176",
        "meta_mean_motion": 14.07077314,
        "meta_eccentricity": 0.00204338,
        "meta_inclination": 98.7583,
        "meta_ra_of_asc_node": 356.1452,
        "meta_arg_of_pericenter": 283.3234,
        "meta_mean_anomaly": 92.2448,
        "meta_ephemeris_type": 0,
        "meta_classification_type": "U",
        "meta_norad_cat_id": 30077,
        "meta_element_set_no": 999,
        "meta_rev_at_epoch": 97022,
        "meta_bstar": 4.9241761e-05,
        "meta_mean_motion_dot": 4e-07,
        "meta_mean_motion_ddot": 0,
        "tle_line1": "1 30077U 99025QE  25340.28709234  .00000040  00000+0  49242-4 0  9999",
        "tle_line2": "2 30077  98.7583 356.1452 0020433 283.3234  92.2448 14.07077314970225"
      },
      "geometry": {
        "type": "Point",
        "coordinates": [
          173.20263928673438,
          -20.21094036849952
        ]
      }
    },
    {
      "type": "Feature",
      "properties": {
        "norad_id": 30078,
        "name": "FENGYUN 1C DEB",
        "group": "fengyun-1c-debris",
        "lat": 78.79021986909132,
        "lon": -72.85862715969759,
        "alt_km": 842.7349629069813,
        "timestamp": "2025-12-06T14:35:37.399750+00:00",
        "meta_object_name": "FENGYUN 1C DEB",
        "meta_object_id": "1999-025QF",
        "meta_epoch": "2025-12-05T23:47:35.028960",
        "meta_mean_motion": 14.23075702,
        "meta_eccentricity": 0.00525567,
        "meta_inclination": 98.833,
        "meta_ra_of_asc_node": 54.8377,
        "meta_arg_of_pericenter": 300.1903,
        "meta_mean_anomaly": 238.9014,
        "meta_ephemeris_type": 0,
        "meta_classification_type": "U",
        "meta_norad_cat_id": 30078,
        "meta_element_set_no": 999,
        "meta_rev_at_epoch": 97017,
        "meta_bstar": 0.0021676239,
        "meta_mean_motion_dot": 4.916e-05,
        "meta_mean_motion_ddot": 0,
        "tle_line1": "1 30078U 99025QF  25339.99137765  .00004916  00000+0  21676-2 0  9995",
        "tle_line2": "2 30078  98.8330  54.8377 0052556 300.1903 238.9014 14.23075702970176"
      },
      "geometry": {
        "type": "Point",
        "coordinates": [
          -72.85862715969759,
          78.79021986909132
        ]
      }
    },
    {
      "type": "Feature",
      "properties": {
        "norad_id": 30079,
        "name": "FENGYUN 1C DEB",
        "group": "fengyun-1c-debris",
        "lat": -34.49271834074409,
        "lon": 42.49013668580069,
        "alt_km": 836.3432309311283,
        "timestamp": "2025-12-06T14:35:37.399760+00:00",
        "meta_object_name": "FENGYUN 1C DEB",
        "meta_object_id": "1999-025QG",
        "meta_epoch": "2025-12-06T02:51:17.121024",
        "meta_mean_motion": 14.00787929,
        "meta_eccentricity": 0.00847005,
        "meta_inclination": 99.0367,
        "meta_ra_of_asc_node": 35.7289,
        "meta_arg_of_pericenter": 317.6614,
        "meta_mean_anomaly": 62.0837,
        "meta_ephemeris_type": 0,
        "meta_classification_type": "U",
        "meta_norad_cat_id": 30079,
        "meta_element_set_no": 999,
        "meta_rev_at_epoch": 96445,
        "meta_bstar": 0.00033532747,
        "meta_mean_motion_dot": 4.71e-06,
        "meta_mean_motion_ddot": 0,
        "tle_line1": "1 30079U 99025QG  25340.11894816  .00000471  00000+0  33533-3 0  9997",
        "tle_line2": "2 30079  99.0367  35.7289 0084700 317.6614  62.0837 14.00787929964457"
      },
      "geometry": {
        "type": "Point",
        "coordinates": [
          42.49013668580069,
          -34.49271834074409
        ]
      }
    }
  ]
}